{"type": "FeatureCollection", "features": [ {"type": "Feature", "properties": {"norad_id": 31477, "name": "FENGYUN 1C DEB", "group": "fengyun-1c-debris", "lat": -24.19140046259136, "lon": 157.0158347180061, "alt_km": 968.0591685240433, "timestamp": "2025-12-17T10:52:54.636067+00:00", "meta": {"OBJECT_NAME": "FENGYUN 1C DEB", "OBJECT_ID": "1999-025BVR", "EPOCH": "2025-12-16T21:55:47.514432", "MEAN_MOTION": 14.02927179, "ECCENTRICITY": 0.01099576, "INCLINATION": 98.8859, "RA_OF_ASC_NODE": 340.5191, "ARG_OF_PERICENTER": 17.2729, "MEAN_ANOMALY": 343.2133, "EPHEMERIS_TYPE": 0, "CLASSIFICATION_TYPE": "U", "NORAD_CAT_ID": 31477, "ELEMENT_SET_NO": 999, "REV_AT_EPOCH": 95462, "BSTAR": 0.00034500012, "MEAN_MOTION_DOT": 5.21e-06, "MEAN_MOTION_DDOT": 0}, "tle": {"line1": "1 31477U 99025BVR 25350.91374438  .00000521  00000+0  34500-3 0  9993", "line2": "2 31477  98.8859 340.5191 0109957  17.2729 343.2133 14.02927179954620"}}, "geometry": {"type": "Point", "coordinates": [157.0158347180061, -24.19140046259136]}}, {"type": "Feature", "properties": {"norad_id": 31480, "name": "FENGYUN 1C DEB", "group": "fengyun-1c-debris", "lat": 11.184364886045133, "lon": -159.51923226759894, "alt_km": 1170.209035144636, "timestamp": "2025-12-17T10:52:54.636077+00:00", "meta": {"OBJECT_NAME": "FENGYUN 1C DEB", "OBJECT_ID": "1999-025BVU", "EPOCH": "2025-12-15T20:48:54.847008", "MEAN_MOTION": 13.89960525, "ECCENTRICITY": 0.03444903, "INCLINATION": 98.3375, "RA_OF_ASC_NODE": 200.717, "ARG_OF_PERICENTER": 212.672, "MEAN_ANOMALY": 145.2709, "EPHEMERIS_TYPE": 0, "CLASSIFICATION_TYPE": "U", "NORAD_CAT_ID": 31480, "ELEMENT_SET_NO": 999, "REV_AT_EPOCH": 93439, "BSTAR": 0.0022104513, "MEAN_MOTION_DOT": 4.359e-05, "MEAN_MOTION_DDOT": 0}, "tle": {"line1": "1 31480U 99025BVU 25349.86730147  .00004359  00000+0  22105-2 0  9992", "line2": "2 31480  98.3375 200.7170 0344490 212.6720 145.2709 13.89960525934398"}}, "geometry": {"type": "Point", "coordinates": [-159.51923226759894, 11.184364886045133]}}, {"type": "Feature", "properties": {"norad_id": 31482, "name": "FENGYUN 1C DEB", "group": "fengyun-1c-debris", "lat": 47.959772073945125, "lon": -175.40990872599485, "alt_km": 814.5396950550621, "timestamp": "2025-12-17T10:52:54.636087+00:00", "meta": {"OBJECT_NAME": "FENGYUN 1C DEB", "OBJECT_ID": "1999-025BVW", "EPOCH": "2025-12-15T23:16:39.766080", "MEAN_MOTION": 14.35672239, "ECCENTRICITY": 0.00887459, "INCLINATION": 98.3824, "RA_OF_ASC_NODE": 353.7364, "ARG_OF_PERICENTER": 272.5344, "MEAN_ANOMALY": 116.4742, "EPHEMERIS_TYPE": 0, "CLASSIFICATION_TYPE": "U", "NORAD_CAT_ID": 31482, "ELEMENT_SET_NO": 999, "REV_AT_EPOCH": 97176, "BSTAR": 0.00057604731, "MEAN_MOTION_DOT": 1.695e-05, "MEAN_MOTION_DDOT": 0}, "tle": {"line1": "1 31482U 99025BVW 25349.96990470  .00001695  00000+0  57605-3 0  9996", "line2": "2 31482  98.3824 353.7364 0088745 272.5344 116.4742 14.35672239971761"}}, "geometry": {"type": "Point", "coordinates": [-175.40990872599485, 47.959772073945125]}}, {"type": "Feature", "properties": {"norad_id": 31483, "name": "FENGYUN 1C DEB", "group": "fengyun-1c-debris", "lat": 11.116845564413106, "lon": -58.894276988946366, "alt_km": 921.0511682529605, "timestamp": "2025-12-17T10:52:54.636098+00:00", "meta": {"OBJECT_NAME": "FENGYUN 1C DEB", "OBJECT_ID": "1999-025BVX", "EPOCH": "2025-12-16T16:46:30.253728", "MEAN_MOTION": 14.16079998, "ECCENTRICITY": 0.01183346, "INCLINATION": 102.5032, "RA_OF_ASC_NODE": 302.5497, "ARG_OF_PERICENTER": 211.1655, "MEAN_ANOMALY": 275.6816, "EPHEMERIS_TYPE": 0, "CLASSIFICATION_TYPE": "U", "NORAD_CAT_ID": 31483, "ELEMENT_SET_NO": 999, "REV_AT_EPOCH": 94762, "BSTAR": 0.0021274565, "MEAN_MOTION_DOT": 4.426e-05, "MEAN_MOTION_DDOT": 0}, "tle": {"line1": "1 31483U 99025BVX 25350.69896127  .00004426  00000+0  21275-2 0  9991", "line2": "2 31483 102.5032 302.5497 0118334 211.1655 275.6816 14.16079998947622"}}, "geometry": {"type": "Point", "coordinates": [-58.894276988946366, 11.116845564413106]}}, {"type": "Feature", "properties": {"norad_id": 31484, "name": "FENGYUN 1C DEB", "group": "fengyun-1c-debris", "lat": -73.50453067504088, "lon": 64.7901225278142, "alt_km": 759.5704513677074, "timestamp": "2025-12-17T10:52:54.636108+00:00", "meta": {"OBJECT_NAME": "FENGYUN 1C DEB", "OBJECT_ID": "1999-025BVY", "EPOCH": "2025-12-16T07:12:51.702624", "MEAN_MOTION": 14.50534743, "ECCENTRICITY": 0.0083054, "INCLINATION": 101.8044, "RA_OF_ASC_NODE": 288.1066, "ARG_OF_PERICENTER": 142.077, "MEAN_ANOMALY": 218.6301, "EPHEMERIS_TYPE": 0, "CLASSIFICATION_TYPE": "U", "NORAD_CAT_ID": 31484, "ELEMENT_SET_NO": 999, "REV_AT_EPOCH": 64289, "BSTAR": 0.0030623043, "MEAN_MOTION_DOT": 0.00012484, "MEAN_MOTION_DDOT": 0}, "tle": {"line1": "1 31484U 99025BVY 25350.30059841  .00012484  00000+0  30623-2 0  9994", "line2": "2 31484 101.8044 288.1066 0083054 142.0770 218.6301 14.50534743642898"}}, "geometry": {"type": "Point", "coordinates": [64.7901225278142, -73.50453067504088]}}, {"type": "Feature", "properties": {"norad_id": 31485, "name": "FENGYUN 1C DEB", "group": "fengyun-1c-debris", "lat": -76.734187840881, "lon": -106.80152735944539, "alt_km": 837.7059948356373, "timestamp": "2025-12-17T10:52:54.636118+00:00", "meta": {"OBJECT_NAME": "FENGYUN 1C DEB", "OBJECT_ID": "1999-025BVZ", "EPOCH": "2025-12-14T11:36:33.254208", "MEAN_MOTION": 13.40054858, "ECCENTRICITY": 0.04460457, "INCLINATION": 102.7182, "RA_OF_ASC_NODE": 176.1623, "ARG_OF_PERICENTER": 315.1545, "MEAN_ANOMALY": 41.4324, "EPHEMERIS_TYPE": 0, "CLASSIFICATION_TYPE": "U", "NORAD_CAT_ID": 31485, "ELEMENT_SET_NO": 999, "REV_AT_EPOCH": 90468, "BSTAR": 0.0029738021, "MEAN_MOTION_DOT": 2.837e-05, "MEAN_MOTION_DDOT": 0}, "tle": {"line1": "1 31485U 99025BVZ 25348.48371822  .00002837  00000+0  29738-2 0  9993", "line2": "2 31485 102.7182 176.1623 0446045 315.1545  41.4324 13.40054858904680"}}, "geometry": {"type": "Point", "coordinates": [-106.80152735944539, -76.734187840881]}}, {"type": "Feature", "properties": {"norad_id": 31487, "name": "FENGYUN 1C DEB", "group": "fengyun-1c-debris", "lat": -64.19818408992556, "lon": -171.3455042621774, "alt_km": 820.813601585397, "timestamp": "2025-12-17T10:52:54.636128+00:00", "meta": {"OBJECT_NAME": "FENGYUN 1C DEB", "OBJECT_ID": "1999-025BWB", "EPOCH": "2025-12-16T18:05:38.808960", "MEAN_MOTION": 13.97748907, "ECCENTRICITY": 0.01207021, "INCLINATION": 102.4128, "RA_OF_ASC_NODE": 160.6125, "ARG_OF_PERICENTER": 296.8544, "MEAN_ANOMALY": 77.9773, "EPHEMERIS_TYPE": 0, "CLASSIFICATION_TYPE": "U", "NORAD_CAT_ID": 31487, "ELEMENT_SET_NO": 999, "REV_AT_EPOCH": 94468, "BSTAR": 0.0013336273, "MEAN_MOTION_DOT": 1.933e-05, "MEAN_MOTION_DDOT": 0}, "tle": {"line1": "1 31487U 99025BWB 25350.75392140  .00001933  00000+0  13336-2 0  9997", "line2": "2 31487 102.4128 160.6125 0120702 296.8544  77.9773 13.97748907944680"}}, "geometry": {"type": "Point", "coordinates": [-171.3455042621774, -64.19818408992556]}}, {"type": "Feature", "properties": {"norad_id": 31491, "name": "FENGYUN 1C DEB", "group": "fengyun-1c-debris", "lat": 74.21393479616422, "lon": 115.71762558964787, "alt_km": 860.4538466371887, "timestamp": "2025-12-17T10:52:54.636138+00:00", "meta": {"OBJECT_NAME": "FENGYUN 1C DEB", "OBJECT_ID": "1999-025BWE", "EPOCH": "2025-12-13T04:44:11.383872", "MEAN_MOTION": 14.17269112, "ECCENTRICITY": 0.00518484, "INCLINATION": 99.3043, "RA_OF_ASC_NODE": 255.8234, "ARG_OF_PERICENTER": 267.3751, "MEAN_ANOMALY": 92.1487, "EPHEMERIS_TYPE": 0, "CLASSIFICATION_TYPE": "U", "NORAD_CAT_ID": 31491, "ELEMENT_SET_NO": 999, "REV_AT_EPOCH": 63734, "BSTAR": 0.0029952157, "MEAN_MOTION_DOT": 6.086e-05, "MEAN_MOTION_DDOT": 0}, "tle": {"line1": "1 31491U 99025BWE 25347.19735398  .00006086  00000+0  29952-2 0  9997", "line2": "2 31491  99.3043 255.8234 0051848 267.3751  92.1487 14.17269112637342"}}, "geometry": {"type": "Point", "coordinates": [115.71762558964787, 74.21393479616422]}}, {"type": "Feature", "properties": {"norad_id": 31492, "name": "FENGYUN 1C DEB", "group": "fengyun-1c-debris", "lat": -2.7488096482971303, "lon": -22.550908834164623, "alt_km": 706.3333262347151, "timestamp": "2025-12-17T10:52:54.636159+00:00", "meta": {"OBJECT_NAME": "FENGYUN 1C DEB", "OBJECT_ID": "1999-025BWF", "EPOCH": "2025-12-15T22:08:09.919392", "MEAN_MOTION": 14.708865, "ECCENTRICITY": 0.00645233, "INCLINATION": 98.8563, "RA_OF_ASC_NODE": 156.215, "ARG_OF_PERICENTER": 358.9313, "MEAN_ANOMALY": 1.1743, "EPHEMERIS_TYPE": 0, "CLASSIFICATION_TYPE": "U", "NORAD_CAT_ID": 31492, "ELEMENT_SET_NO": 999, "REV_AT_EPOCH": 96553, "BSTAR": 0.0020246159, "MEAN_MOTION_DOT": 0.00012755, "MEAN_MOTION_DDOT": 0}, "tle": {"line1": "1 31492U 99025BWF 25349.92233703  .00012755  00000+0  20246-2 0  9991", "line2": "2 31492  98.8563 156.2150 0064523 358.9313   1.1743 14.70886500965535"}}, "geometry": {"type": "Point", "coordinates": [-22.550908834164623, -2.7488096482971303]}}, {"type": "Feature", "properties": {"norad_id": 31493, "name": "FENGYUN 1C DEB", "group": "fengyun-1c-debris", "lat": -74.76918137415154, "lon": 76.71711463433206, "alt_km": 932.3432468191832, "timestamp": "2025-12-17T10:52:54.636170+00:00", "meta": {"OBJECT_NAME": "FENGYUN 1C DEB", "OBJECT_ID": "1999-025BWG", "EPOCH": "2025-12-12T02:05:14.361792", "MEAN_MOTION": 13.92967952, "ECCENTRICITY": 0.01169776, "INCLINATION": 100.136, "RA_OF_ASC_NODE": 291.9196, "ARG_OF_PERICENTER": 177.3499, "MEAN_ANOMALY": 182.8302, "EPHEMERIS_TYPE": 0, "CLASSIFICATION_TYPE": "U", "NORAD_CAT_ID": 31493, "ELEMENT_SET_NO": 999, "REV_AT_EPOCH": 59857, "BSTAR": 0.0010865995, "MEAN_MOTION_DOT": 1.441e-05, "MEAN_MOTION_DDOT": 0}, "tle": {"line1": "1 31493U 99025BWG 25346.08697178  .00001441  00000+0  10866-2 0  9993", "line2": "2 31493 100.1360 291.9196 0116977 177.3499 182.8302 13.92967952598572"}}, "geometry": {"type": "Point", "coordinates": [76.71711463433206, -74.76918137415154]}}]}